{
  "type": "FeatureCollection",
  "features": [
    {
      "type": "Feature",
      "properties": {
        "norad_id": 33972,
        "name": "COSMOS 2251 DEB",
        "group": "cosmos-2251-debris",
        "lat": 72.50054988906875,
        "lon": -98.53826476462092,
        "alt_km": 745.4088625526392,
        "timestamp": "2025-12-09T21:34:11.802674+00:00",
        "meta_object_name": "COSMOS 2251 DEB",
        "meta_object_id": "1993-036FF",
        "meta_epoch": "2025-12-08T09:14:11.114304",
        "meta_mean_motion": 14.36176822,
        "meta_eccentricity": 0.01230842,
        "meta_inclination": 73.9938,
        "meta_ra_of_asc_node": 198.6837,
        "meta_arg_of_pericenter": 7.3687,
        "meta_mean_anomaly": 170.0122,
        "meta_ephemeris_type": 0,
        "meta_classification_type": "U",
        "meta_norad_cat_id": 33972,
        "meta_element_set_no": 999,
        "meta_rev_at_epoch": 87011,
        "meta_bstar": 0.0015608528,
        "meta_mean_motion_dot": 4.938e-05,
        "meta_mean_motion_ddot": 0,
        "tle_line1": "1 33972U 93036FF  25342.38485086  .00004938  00000+0  15609-2 0  9999",
        "tle_line2": "2 33972  73.9938 198.6837 0123084   7.3687 170.0122 14.36176822870116"
      },
      "geometry": {
        "type": "Point",
        "coordinates": [
          -98.53826476462092,
          72.50054988906875
        ]
      }
    },
    {
      "type": "Feature",
      "properties": {
        "norad_id": 33973,
        "name": "COSMOS 2251 DEB",
        "group": "cosmos-2251-debris",
        "lat": 71.92845784735027,
        "lon": -133.3118873227282,
        "alt_km": 766.7471183246844,
        "timestamp": "2025-12-09T21:34:11.802684+00:00",
        "meta_object_name": "COSMOS 2251 DEB",
        "meta_object_id": "1993-036FG",
        "meta_epoch": "2025-12-09T14:32:15.091872",
        "meta_mean_motion": 14.4538571,
        "meta_eccentricity": 0.004727,
        "meta_inclination": 74.0079,
        "meta_ra_of_asc_node": 108.744,
        "meta_arg_of_pericenter": 287.7375,
        "meta_mean_anomaly": 86.6082,
        "meta_ephemeris_type": 0,
        "meta_classification_type": "U",
        "meta_norad_cat_id": 33973,
        "meta_element_set_no": 999,
        "meta_rev_at_epoch": 88555,
        "meta_bstar": 0.0002752468,
        "meta_mean_motion_dot": 9.53e-06,
        "meta_mean_motion_ddot": 0,
        "tle_line1": "1 33973U 93036FG  25343.60573023  .00000953  00000+0  27525-3 0  9999",
        "tle_line2": "2 33973  74.0079 108.7440 0047270 287.7375  86.6082 14.45385710885556"
      },
      "geometry": {
        "type": "Point",
        "coordinates": [
          -133.3118873227282,
          71.92845784735027
        ]
      }
    },
    {
      "type": "Feature",
      "properties": {
        "norad_id": 33975,
        "name": "COSMOS 2251 DEB",
        "group": "cosmos-2251-debris",
        "lat": 41.95831949714436,
        "lon": -105.70189273854486,
        "alt_km": 878.1981231888158,
        "timestamp": "2025-12-09T21:34:11.802694+00:00",
        "meta_object_name": "COSMOS 2251 DEB",
        "meta_object_id": "1993-036FJ",
        "meta_epoch": "2025-12-09T14:02:56.140800",
        "meta_mean_motion": 14.00514794,
        "meta_eccentricity": 0.01913795,
        "meta_inclination": 73.8025,
        "meta_ra_of_asc_node": 89.9977,
        "meta_arg_of_pericenter": 223.3687,
        "meta_mean_anomaly": 135.2253,
        "meta_ephemeris_type": 0,
        "meta_classification_type": "U",
        "meta_norad_cat_id": 33975,
        "meta_element_set_no": 999,
        "meta_rev_at_epoch": 85785,
        "meta_bstar": 0.0011736827,
        "meta_mean_motion_dot": 2.016e-05,
        "meta_mean_motion_ddot": 0,
        "tle_line1": "1 33975U 93036FJ  25343.58537200  .00002016  00000+0  11737-2 0  9994",
        "tle_line2": "2 33975  73.8025  89.9977 0191379 223.3687 135.2253 14.00514794857853"
      },
      "geometry": {
        "type": "Point",
        "coordinates": [
          -105.70189273854486,
          41.95831949714436
        ]
      }
    },
    {
      "type": "Feature",
      "properties": {
        "norad_id": 33980,
        "name": "COSMOS 2251 DEB",
        "group": "cosmos-2251-debris",
        "lat": 71.20839587391129,
        "lon": -172.54845591386123,
        "alt_km": 697.4825716161449,
        "timestamp": "2025-12-09T21:34:11.802705+00:00",
        "meta_object_name": "COSMOS 2251 DEB",
        "meta_object_id": "1993-036FP",
        "meta_epoch": "2025-12-09T09:57:23.256000",
        "meta_mean_motion": 14.58617406,
        "meta_eccentricity": 0.00288721,
        "meta_inclination": 74.0216,
        "meta_ra_of_asc_node": 65.7327,
        "meta_arg_of_pericenter": 211.4817,
        "meta_mean_anomaly": 228.9087,
        "meta_ephemeris_type": 0,
        "meta_classification_type": "U",
        "meta_norad_cat_id": 33980,
        "meta_element_set_no": 999,
        "meta_rev_at_epoch": 88746,
        "meta_bstar": 0.0012126938,
        "meta_mean_motion_dot": 5.654e-05,
        "meta_mean_motion_ddot": 0,
        "tle_line1": "1 33980U 93036FP  25343.41485250  .00005654  00000+0  12127-2 0  9994",
        "tle_line2": "2 33980  74.0216  65.7327 0028872 211.4817 228.9087 14.58617406887467"
      },
      "geometry": {
        "type": "Point",
        "coordinates": [
          -172.54845591386123,
          71.20839587391129
        ]
      }
    },
    {
      "type": "Feature",
      "properties": {
        "norad_id": 33982,
        "name": "COSMOS 2251 DEB",
        "group": "cosmos-2251-debris",
        "lat": -57.968453054070544,
        "lon": -21.812138780498422,
        "alt_km": 719.2065927646099,
        "timestamp": "2025-12-09T21:34:11.802715+00:00",
        "meta_object_name": "COSMOS 2251 DEB",
        "meta_object_id": "1993-036FR",
        "meta_epoch": "2025-12-09T12:40:30.842400",
        "meta_mean_motion": 14.60193314,
        "meta_eccentricity": 0.00749813,
        "meta_inclination": 74.0709,
        "meta_ra_of_asc_node": 6.0543,
        "meta_arg_of_pericenter": 51.474,
        "meta_mean_anomaly": 100.1414,
        "meta_ephemeris_type": 0,
        "meta_classification_type": "U",
        "meta_norad_cat_id": 33982,
        "meta_element_set_no": 999,
        "meta_rev_at_epoch": 89112,
        "meta_bstar": 0.0006021789,
        "meta_mean_motion_dot": 2.989e-05,
        "meta_mean_motion_ddot": 0,
        "tle_line1": "1 33982U 93036FR  25343.52813475  .00002989  00000+0  60218-3 0  9995",
        "tle_line2": "2 33982  74.0709   6.0543 0074981  51.4740 100.1414 14.60193314891126"
      },
      "geometry": {
        "type": "Point",
        "coordinates": [
          -21.812138780498422,
          -57.968453054070544
        ]
      }
    },
    {
      "type": "Feature",
      "properties": {
        "norad_id": 33983,
        "name": "COSMOS 2251 DEB",
        "group": "cosmos-2251-debris",
        "lat": -30.121761105523095,
        "lon": 142.83028966556245,
        "alt_km": 724.6697587799144,
        "timestamp": "2025-12-09T21:34:11.802725+00:00",
        "meta_object_name": "COSMOS 2251 DEB",
        "meta_object_id": "1993-036FS",
        "meta_epoch": "2025-12-09T11:55:26.624352",
        "meta_mean_motion": 14.50649612,
        "meta_eccentricity": 0.00213884,
        "meta_inclination": 74.0493,
        "meta_ra_of_asc_node": 153.1364,
        "meta_arg_of_pericenter": 256.4263,
        "meta_mean_anomaly": 133.9147,
        "meta_ephemeris_type": 0,
        "meta_classification_type": "U",
        "meta_norad_cat_id": 33983,
        "meta_element_set_no": 999,
        "meta_rev_at_epoch": 88582,
        "meta_bstar": 0.00089636767,
        "meta_mean_motion_dot": 3.503e-05,
        "meta_mean_motion_ddot": 0,
        "tle_line1": "1 33983U 93036FS  25343.49683593  .00003503  00000+0  89637-3 0  9997",
        "tle_line2": "2 33983  74.0493 153.1364 0021388 256.4263 133.9147 14.50649612885825"
      },
      "geometry": {
        "type": "Point",
        "coordinates": [
          142.83028966556245,
          -30.121761105523095
        ]
      }
    },
    {
      "type": "Feature",
      "properties": {
        "norad_id": 33984,
        "name": "COSMOS 2251 DEB",
        "group": "cosmos-2251-debris",
        "lat": -73.46403004832369,
        "lon": -82.39335308591117,
        "alt_km": 677.6754139231471,
        "timestamp": "2025-12-09T21:34:11.802735+00:00",
        "meta_object_name": "COSMOS 2251 DEB",
        "meta_object_id": "1993-036FT",
        "meta_epoch": "2025-12-09T11:04:20.798976",
        "meta_mean_motion": 14.66318161,
        "meta_eccentricity": 0.00233413,
        "meta_inclination": 74.0096,
        "meta_ra_of_asc_node": 353.4318,
        "meta_arg_of_pericenter": 192.4125,
        "meta_mean_anomaly": 293.6081,
        "meta_ephemeris_type": 0,
        "meta_classification_type": "U",
        "meta_norad_cat_id": 33984,
        "meta_element_set_no": 999,
        "meta_rev_at_epoch": 89018,
        "meta_bstar": 0.0012650084,
        "meta_mean_motion_dot": 6.985e-05,
        "meta_mean_motion_ddot": 0,
        "tle_line1": "1 33984U 93036FT  25343.46135184  .00006985  00000+0  12650-2 0  9990",
        "tle_line2": "2 33984  74.0096 353.4318 0023341 192.4125 293.6081 14.66318161890181"
      },
      "geometry": {
        "type": "Point",
        "coordinates": [
          -82.39335308591117,
          -73.46403004832369
        ]
      }
    }
  ]
}